start=new Date('2022-08-17T00:00:00.000Z').valueOf();
sats=[{"REV_AT_EPOCH":"130","CENTER_NAME":"EARTH","OBJECT_TYPE":"PAYLOAD","TIME_SYSTEM":"UTC","OBJECT_NAME":"STARLINK-4140","MEAN_MOTION_DDOT":"0.0000000000000","INCLINATION":"53.2190","RA_OF_ASC_NODE":"287.6206","LAUNCH_DATE":"2022-07-24","ECCENTRICITY":"0.00023600","BSTAR":"0.00016479000000","EPHEMERIS_TYPE":"0","SEMIMAJOR_AXIS":"6727.903","EPOCH":"2022-08-16T22:00:00.999936","REF_FRAME":"TEME","MEAN_ANOMALY":"338.4767","ELEMENT_SET_NO":"999","COUNTRY_CODE":"US","OBJECT_ID":"2022-086T","TLE_LINE2":"2 53259  53.2190 287.6206 0002360  16.2210 338.4767 15.73197355  1308","APOAPSIS":"351.355","FILE":"3538178","SITE":"AFETR","DECAY_DATE":null,"PERIAPSIS":"348.180","MEAN_MOTION_DOT":"0.00022567","MEAN_MOTION":"15.73197355","MEAN_ELEMENT_THEORY":"SGP4","NORAD_CAT_ID":"53259","CLASSIFICATION_TYPE":"U","ARG_OF_PERICENTER":"16.2210","PERIOD":"91.533","TLE_LINE1":"1 53259U 22086T   22228.91667824  .00022567  00000-0  16479-3 0  9993","GP_ID":"210370628","RCS_SIZE":"LARGE"},{"PERIOD":"91.534","CLASSIFICATION_TYPE":"U","ARG_OF_PERICENTER":"16.4422","NORAD_CAT_ID":"53260","MEAN_ELEMENT_THEORY":"SGP4","GP_ID":"210370492","RCS_SIZE":"LARGE","TLE_LINE1":"1 53260U 22086U   22228.91667824  .00037398  00000-0  26975-3 0  9995","SITE":"AFETR","APOAPSIS":"351.354","FILE":"3538178","TLE_LINE2":"2 53260  53.2184 287.6200 0002343  16.4422 337.0449 15.73193855  1308","MEAN_MOTION_DOT":"0.00037398","MEAN_MOTION":"15.73193855","PERIAPSIS":"348.201","DECAY_DATE":null,"BSTAR":"0.00026975000000","ECCENTRICITY":"0.00023430","LAUNCH_DATE":"2022-07-24","COUNTRY_CODE":"US","OBJECT_ID":"2022-086U","ELEMENT_SET_NO":"999","REF_FRAME":"TEME","SEMIMAJOR_AXIS":"6727.913","MEAN_ANOMALY":"337.0449","EPOCH":"2022-08-16T22:00:00.999936","EPHEMERIS_TYPE":"0","MEAN_MOTION_DDOT":"0.0000000000000","OBJECT_NAME":"STARLINK-4136","TIME_SYSTEM":"UTC","CENTER_NAME":"EARTH","REV_AT_EPOCH":"130","OBJECT_TYPE":"PAYLOAD","RA_OF_ASC_NODE":"287.6200","INCLINATION":"53.2184"},{"TLE_LINE1":"1 53261U 22086V   22228.91667824  .00004609  00000-0  37225-4 0  9996","RCS_SIZE":"LARGE","GP_ID":"210370219","NORAD_CAT_ID":"53261","MEAN_ELEMENT_THEORY":"SGP4","ARG_OF_PERICENTER":"14.0819","CLASSIFICATION_TYPE":"U","PERIOD":"91.532","DECAY_DATE":null,"PERIAPSIS":"347.779","MEAN_MOTION":"15.73216575","MEAN_MOTION_DOT":"0.00004609","TLE_LINE2":"2 53261  53.2188 287.6168 0002874  14.0819 342.3737 15.73216575  1303","FILE":"3538178","APOAPSIS":"351.647","SITE":"AFETR","EPHEMERIS_TYPE":"0","EPOCH":"2022-08-16T22:00:00.999936","SEMIMAJOR_AXIS":"6727.848","REF_FRAME":"TEME","MEAN_ANOMALY":"342.3737","COUNTRY_CODE":"US","OBJECT_ID":"2022-086V","ELEMENT_SET_NO":"999","LAUNCH_DATE":"2022-07-24","ECCENTRICITY":"0.00028740","BSTAR":"0.00003722500000","INCLINATION":"53.2188","RA_OF_ASC_NODE":"287.6168","OBJECT_TYPE":"PAYLOAD","CENTER_NAME":"EARTH","REV_AT_EPOCH":"130","TIME_SYSTEM":"UTC","OBJECT_NAME":"STARLINK-4062","MEAN_MOTION_DDOT":"0.0000000000000"},{"EPOCH":"2022-08-16T22:00:00.999936","SEMIMAJOR_AXIS":"6727.808","REF_FRAME":"TEME","MEAN_ANOMALY":"333.6958","EPHEMERIS_TYPE":"0","COUNTRY_CODE":"US","OBJECT_ID":"2022-086W","ELEMENT_SET_NO":"999","ECCENTRICITY":"0.00027010","LAUNCH_DATE":"2022-07-24","BSTAR":"0.00001091100000","RA_OF_ASC_NODE":"287.6174","INCLINATION":"53.2185","TIME_SYSTEM":"UTC","OBJECT_TYPE":"PAYLOAD","REV_AT_EPOCH":"130","CENTER_NAME":"EARTH","MEAN_MOTION_DDOT":"0.0000000000000","OBJECT_NAME":"STARLINK-4085","TLE_LINE1":"1 53262U 22086W   22228.91667824  .00000911  00000-0  10911-4 0  9992","RCS_SIZE":"LARGE","GP_ID":"210370356","MEAN_ELEMENT_THEORY":"SGP4","NORAD_CAT_ID":"53262","PERIOD":"91.531","ARG_OF_PERICENTER":"21.4959","CLASSIFICATION_TYPE":"U","PERIAPSIS":"347.856","DECAY_DATE":null,"MEAN_MOTION":"15.73230445","MEAN_MOTION_DOT":"0.00000911","TLE_LINE2":"2 53262  53.2185 287.6174 0002701  21.4959 333.6958 15.73230445  1304","SITE":"AFETR","APOAPSIS":"351.491","FILE":"3538178"},{"COUNTRY_CODE":"US","ELEMENT_SET_NO":"999","OBJECT_ID":"2022-086X","REF_FRAME":"TEME","SEMIMAJOR_AXIS":"6727.878","EPOCH":"2022-08-16T22:00:00.999936","MEAN_ANOMALY":"335.6946","EPHEMERIS_TYPE":"0","BSTAR":"0.00012802000000","ECCENTRICITY":"0.00023170","LAUNCH_DATE":"2022-07-24","INCLINATION":"53.2176","RA_OF_ASC_NODE":"287.6164","MEAN_MOTION_DDOT":"0.0000000000000","OBJECT_NAME":"STARLINK-4130","TIME_SYSTEM":"UTC","REV_AT_EPOCH":"130","CENTER_NAME":"EARTH","OBJECT_TYPE":"PAYLOAD","GP_ID":"210370765","RCS_SIZE":"LARGE","TLE_LINE1":"1 53263U 22086X   22228.91667824  .00017389  00000-0  12802-3 0  9990","PERIOD":"91.533","CLASSIFICATION_TYPE":"U","ARG_OF_PERICENTER":"21.3756","NORAD_CAT_ID":"53263","MEAN_ELEMENT_THEORY":"SGP4","MEAN_MOTION_DOT":"0.00017389","MEAN_MOTION":"15.73206062","PERIAPSIS":"348.184","DECAY_DATE":null,"SITE":"AFETR","APOAPSIS":"351.302","FILE":"3538178","TLE_LINE2":"2 53263  53.2176 287.6164 0002317  21.3756 335.6946 15.73206062  1308"},{"NORAD_CAT_ID":"53264","MEAN_ELEMENT_THEORY":"SGP4","PERIOD":"91.530","ARG_OF_PERICENTER":"20.3586","CLASSIFICATION_TYPE":"U","TLE_LINE1":"1 53264U 22086Y   22228.91667824 -.00058383  00000-0 -41336-3 0  9996","RCS_SIZE":"LARGE","GP_ID":"210370084","TLE_LINE2":"2 53264  53.2185 287.6164 0002084  20.3586 335.4593 15.73258584  1302","SITE":"AFETR","APOAPSIS":"350.995","FILE":"3538178","PERIAPSIS":"348.191","DECAY_DATE":null,"MEAN_MOTION":"15.73258584","MEAN_MOTION_DOT":"-0.00058383","ECCENTRICITY":"0.00020840","LAUNCH_DATE":"2022-07-24","BSTAR":"-0.00041336000000","REF_FRAME":"TEME","SEMIMAJOR_AXIS":"6727.728","EPOCH":"2022-08-16T22:00:00.999936","MEAN_ANOMALY":"335.4593","EPHEMERIS_TYPE":"0","OBJECT_ID":"2022-086Y","COUNTRY_CODE":"US","ELEMENT_SET_NO":"999","TIME_SYSTEM":"UTC","OBJECT_TYPE":"PAYLOAD","CENTER_NAME":"EARTH","REV_AT_EPOCH":"130","MEAN_MOTION_DDOT":"0.0000000000000","OBJECT_NAME":"STARLINK-3950","INCLINATION":"53.2185","RA_OF_ASC_NODE":"287.6164"},{"MEAN_MOTION":"15.73194118","MEAN_MOTION_DOT":"0.00032653","PERIAPSIS":"348.084","DECAY_DATE":null,"SITE":"AFETR","FILE":"3538178","APOAPSIS":"351.470","TLE_LINE2":"2 53265  53.2190 287.6138 0002517  11.9873 346.2761 15.73194118  1305","RCS_SIZE":"LARGE","GP_ID":"210369812","TLE_LINE1":"1 53265U 22086Z   22228.91667824  .00032653  00000-0  23621-3 0  9994","PERIOD":"91.534","ARG_OF_PERICENTER":"11.9873","CLASSIFICATION_TYPE":"U","NORAD_CAT_ID":"53265","MEAN_ELEMENT_THEORY":"SGP4","INCLINATION":"53.2190","RA_OF_ASC_NODE":"287.6138","MEAN_MOTION_DDOT":"0.0000000000000","OBJECT_NAME":"STARLINK-4097","TIME_SYSTEM":"UTC","OBJECT_TYPE":"PAYLOAD","REV_AT_EPOCH":"130","CENTER_NAME":"EARTH","OBJECT_ID":"2022-086Z","COUNTRY_CODE":"US","ELEMENT_SET_NO":"999","SEMIMAJOR_AXIS":"6727.912","REF_FRAME":"TEME","MEAN_ANOMALY":"346.2761","EPOCH":"2022-08-16T22:00:00.999936","EPHEMERIS_TYPE":"0","BSTAR":"0.00023621000000","ECCENTRICITY":"0.00025170","LAUNCH_DATE":"2022-07-24"},{"TLE_LINE1":"1 53266U 22086AA  22228.91667824 -.00011798  00000-0 -79678-4 0  9998","RCS_SIZE":"LARGE","GP_ID":"210369948","NORAD_CAT_ID":"53266","MEAN_ELEMENT_THEORY":"SGP4","ARG_OF_PERICENTER":"12.8958","CLASSIFICATION_TYPE":"U","PERIOD":"91.532","DECAY_DATE":null,"PERIAPSIS":"347.986","MEAN_MOTION":"15.73214975","MEAN_MOTION_DOT":"-0.00011798","TLE_LINE2":"2 53266  53.2187 287.6135 0002573  12.8958 344.7657 15.73214975  1306","FILE":"3538178","APOAPSIS":"351.449","SITE":"AFETR","EPHEMERIS_TYPE":"0","REF_FRAME":"TEME","SEMIMAJOR_AXIS":"6727.852","EPOCH":"2022-08-16T22:00:00.999936","MEAN_ANOMALY":"344.7657","OBJECT_ID":"2022-086AA","COUNTRY_CODE":"US","ELEMENT_SET_NO":"999","LAUNCH_DATE":"2022-07-24","ECCENTRICITY":"0.00025730","BSTAR":"-0.00007967800000","INCLINATION":"53.2187","RA_OF_ASC_NODE":"287.6135","OBJECT_TYPE":"PAYLOAD","CENTER_NAME":"EARTH","REV_AT_EPOCH":"130","TIME_SYSTEM":"UTC","OBJECT_NAME":"STARLINK-4058","MEAN_MOTION_DDOT":"0.0000000000000"},{"RA_OF_ASC_NODE":"287.6095","INCLINATION":"53.2189","TIME_SYSTEM":"UTC","OBJECT_TYPE":"PAYLOAD","CENTER_NAME":"EARTH","REV_AT_EPOCH":"130","MEAN_MOTION_DDOT":"0.0000000000000","OBJECT_NAME":"STARLINK-4060","REF_FRAME":"TEME","SEMIMAJOR_AXIS":"6727.749","MEAN_ANOMALY":"341.0979","EPOCH":"2022-08-16T22:00:00.999936","EPHEMERIS_TYPE":"0","ELEMENT_SET_NO":"999","COUNTRY_CODE":"US","OBJECT_ID":"2022-086AB","ECCENTRICITY":"0.00026590","LAUNCH_DATE":"2022-07-24","BSTAR":"-0.00050606000000","PERIAPSIS":"347.825","DECAY_DATE":null,"MEAN_MOTION":"15.73251225","MEAN_MOTION_DOT":"-0.00071215","TLE_LINE2":"2 53267  53.2189 287.6095 0002659  18.9380 341.0979 15.73251225  1301","SITE":"AFETR","APOAPSIS":"351.403","FILE":"3538178","TLE_LINE1":"1 53267U 22086AB  22228.91667824 -.00071215  00000-0 -50606-3 0  9998","RCS_SIZE":"LARGE","GP_ID":"210370629","MEAN_ELEMENT_THEORY":"SGP4","NORAD_CAT_ID":"53267","PERIOD":"91.530","ARG_OF_PERICENTER":"18.9380","CLASSIFICATION_TYPE":"U"},{"SITE":"AFETR","APOAPSIS":"351.306","FILE":"3538178","TLE_LINE2":"2 53268  53.2185 287.6102 0002518  21.9537 336.8457 15.73252164  1305","MEAN_MOTION":"15.73252164","MEAN_MOTION_DOT":"-0.00057844","PERIAPSIS":"347.917","DECAY_DATE":null,"PERIOD":"91.530","ARG_OF_PERICENTER":"21.9537","CLASSIFICATION_TYPE":"U","MEAN_ELEMENT_THEORY":"SGP4","NORAD_CAT_ID":"53268","RCS_SIZE":"LARGE","GP_ID":"210370493","TLE_LINE1":"1 53268U 22086AC  22228.91667824 -.00057844  00000-0 -40955-3 0  9997","MEAN_MOTION_DDOT":"0.0000000000000","OBJECT_NAME":"STARLINK-4109","TIME_SYSTEM":"UTC","OBJECT_TYPE":"PAYLOAD","REV_AT_EPOCH":"130","CENTER_NAME":"EARTH","INCLINATION":"53.2185","RA_OF_ASC_NODE":"287.6102","BSTAR":"-0.00040955000000","ECCENTRICITY":"0.00025180","LAUNCH_DATE":"2022-07-24","COUNTRY_CODE":"US","ELEMENT_SET_NO":"999","OBJECT_ID":"2022-086AC","SEMIMAJOR_AXIS":"6727.746","EPOCH":"2022-08-16T22:00:00.999936","REF_FRAME":"TEME","MEAN_ANOMALY":"336.8457","EPHEMERIS_TYPE":"0"}];
